{
    "links": {
        "self": "http://www.neowsapp.com/rest/v1/neo/3693719?api_key=iIulBulltgU6a56xZRHN4H3l9WmuAYTsLGpBGhQ2"
    },
    "id": "3693719",
    "neo_reference_id": "3693719",
    "name": "(2014 UQ7)",
    "designation": "2014 UQ7",
    "nasa_jpl_url": "http://ssd.jpl.nasa.gov/sbdb.cgi?sstr=3693719",
    "absolute_magnitude_h": 25.1,
    "estimated_diameter": {
        "kilometers": {
            "estimated_diameter_min": 0.0253837029,
            "estimated_diameter_max": 0.0567596853
        },
        "meters": {
            "estimated_diameter_min": 25.3837029364,
            "estimated_diameter_max": 56.7596852866
        },
        "miles": {
            "estimated_diameter_min": 0.0157726969,
            "estimated_diameter_max": 0.0352688224
        },
        "feet": {
            "estimated_diameter_min": 83.279867942,
            "estimated_diameter_max": 186.2194458756
        }
    },
    "is_potentially_hazardous_asteroid": false,
    "close_approach_data": [
        {
            "close_approach_date": "1952-12-24",
            "close_approach_date_full": "1952-Dec-24 21:12",
            "epoch_date_close_approach": -537072480000,
            "relative_velocity": {
                "kilometers_per_second": "18.1659795131",
                "kilometers_per_hour": "65397.5262472108",
                "miles_per_hour": "40635.4795728849"
            },
            "miss_distance": {
                "astronomical": "0.4588142712",
                "lunar": "178.4787514968",
                "kilometers": "68637637.697122344",
                "miles": "42649450.3836985872"
            },
            "orbiting_body": "Earth"
        },
        {
            "close_approach_date": "2012-12-17",
            "close_approach_date_full": "2012-Dec-17 00:00",
            "epoch_date_close_approach": 1355702400000,
            "relative_velocity": {
                "kilometers_per_second": "14.2989675721",
                "kilometers_per_hour": "51476.2832597044",
                "miles_per_hour": "31985.3605621202"
            },
            "miss_distance": {
                "astronomical": "0.334783362",
                "lunar": "130.230727818",
                "kilometers": "50082877.86663894",
                "miles": "31120057.250099772"
            },
            "orbiting_body": "Earth"
        },
        {
            "close_approach_date": "2014-10-16",
            "close_approach_date_full": "2014-Oct-16 06:06",
            "epoch_date_close_approach": 1413439560000,
            "relative_velocity": {
                "kilometers_per_second": "7.0999177123",
                "kilometers_per_hour": "25559.7037644455",
                "miles_per_hour": "15881.8059307467"
            },
            "miss_distance": {
                "astronomical": "0.0354581398",
                "lunar": "13.7932163822",
                "kilometers": "5304462.188242226",
                "miles": "3296039.9643696788"
            },
            "orbiting_body": "Earth"
        },
        {
            "close_approach_date": "2016-09-07",
            "close_approach_date_full": "2016-Sep-07 18:50",
            "epoch_date_close_approach": 1473274200000,
            "relative_velocity": {
                "kilometers_per_second": "18.8369629221",
                "kilometers_per_hour": "67813.0665193818",
                "miles_per_hour": "42136.4023603348"
            },
            "miss_distance": {
                "astronomical": "0.4619421396",
                "lunar": "179.6954923044",
                "kilometers": "69105560.147402652",
                "miles": "42940203.9118825176"
            },
            "orbiting_body": "Earth"
        }
    ],
    "orbital_data": {
        "orbit_id": "4",
        "orbit_determination_date": "2017-04-06 08:38:05",
        "first_observation_date": "2014-10-18",
        "last_observation_date": "2014-10-21",
        "data_arc_in_days": 3,
        "observations_used": 19,
        "orbit_uncertainty": "8",
        "minimum_orbit_intersection": ".0206256",
        "jupiter_tisserand_invariant": "4.364",
        "epoch_osculation": "2456950.5",
        "eccentricity": ".3526175859361092",
        "semi_major_axis": "1.551746873461056",
        "inclination": "8.404783636242279",
        "ascending_node_longitude": "205.347733114798",
        "orbital_period": "706.0407138931729",
        "perihelion_distance": "1.004573636957313",
        "perihelion_argument": "198.7705191169711",
        "aphelion_distance": "2.098920109964798",
        "perihelion_time": "2456964.553470375512",
        "mean_anomaly": "352.8343376867218",
        "mean_motion": ".5098856098749989",
        "equinox": "J2000",
        "orbit_class": {
            "orbit_class_type": "APO",
            "orbit_class_description": "Near-Earth asteroid orbits which cross the Earth’s orbit similar to that of 1862 Apollo",
            "orbit_class_range": "a (semi-major axis) > 1.0 AU; q (perihelion) < 1.017 AU"
        }
    },
    "is_sentry_object": false
}